NORAD_CAT_ID,OBJECT_NAME,OBJECT_TYPE,EPOCH,MEAN_MOTION,ECCENTRICITY,INCLINATION,RA_OF_ASC_NODE,ARG_OF_PERICENTER,MEAN_ANOMALY,BSTAR,MEAN_MOTION_DOT,MEAN_MOTION_DDOT,TLE_LINE0,TLE_LINE1,TLE_LINE2,SEMIMAJOR_AXIS,PERIOD,APOGEE,PERIGEE,DECAYED
52989.0,STARLINK-4293,PAYLOAD,2022-07-31 22:00:00,15.58608388,0.0001482,53.2176,259.3162,45.4137,191.1285,-0.015813,-0.01117684,0.0,0 STARLINK-4293,1 52989U 22076D   22212.91667824 -.01117684  00000-0 -15813-1 0  9991,2 52989  53.2176 259.3162 0001482  45.4137 191.1285 15.58608388  1309,6769.821,92.39,392.689,390.682,0.0
52989.0,STARLINK-4293,PAYLOAD,2022-08-01 14:00:01,15.57001932,0.0001286,53.2174,256.0943,45.8199,331.5651,-0.016771,-0.01115592,0.0,0 STARLINK-4293,1 52989U 22076D   22213.58334491 -.01115592  00000-0 -16771-1 0  9996,2 52989  53.2174 256.0943 0001286  45.8199 331.5651 15.57001932  4437,6774.476,92.485,397.213,395.47,0.0
52989.0,STARLINK-4293,PAYLOAD,2022-08-01 22:00:00,15.56198329,0.0001513,53.2176,254.4833,38.6684,47.6931,-0.017273,-0.01115011,0.0,0 STARLINK-4293,1 52989U 22076D   22213.91667824 -.01115011  00000-0 -17273-1 0  9996,2 52989  53.2176 254.4833 0001513  38.6684  47.6931 15.56198329  1306,6776.808000000001,92.533,399.699,397.648,0.0
52989.0,STARLINK-4293,PAYLOAD,2022-08-02 06:00:02,15.55396164,0.0001764999999999,53.2177,252.8769,37.9173,116.5181,-0.017809,-0.01115761,0.0,0 STARLINK-4293,1 52989U 22076D   22214.25002315 -.01115761  00000-0 -17809-1 0  9999,2 52989  53.2177 252.8769 0001765  37.9173 116.5181 15.55396164  4538,6779.138000000001,92.581,402.2,399.807,0.0
52989.0,STARLINK-4293,PAYLOAD,2022-08-02 14:00:01,15.54590989,0.0001469,53.2172,251.273,50.9783,170.4373,-0.018264,-0.0111103,0.0,0 STARLINK-4293,1 52989U 22076D   22214.58334491 -.01111030  00000-0 -18264-1 0  9999,2 52989  53.2172 251.2730 0001469  50.9783 170.4373 15.54590989  1301,6781.479,92.629,404.34,402.348,0.0
52989.0,STARLINK-4293,PAYLOAD,2022-08-03 04:00:00,15.53188553,0.0001529,53.2175,248.467,47.1601,199.2629,-0.019306,-0.01115054,0.0,0 STARLINK-4293,1 52989U 22076D   22215.16667824 -.01115054  00000-0 -19306-1 0  9991,2 52989  53.2175 248.4670 0001529  47.1601 199.2629 15.53188553  4685,6785.56,92.713,408.463,406.388,0.0
52989.0,STARLINK-4293,PAYLOAD,2022-08-03 14:00:01,15.5218451,0.0001381,53.2171,246.4692,43.9061,12.8551,-0.020002,-0.01113872,0.0,0 STARLINK-4293,1 52989U 22076D   22215.58334491 -.01113872  00000-0 -20002-1 0  9999,2 52989  53.2171 246.4692 0001381  43.9061  12.8551 15.52184510  1301,6788.486,92.772,411.289,409.414,0.0
52989.0,STARLINK-4293,PAYLOAD,2022-08-03 20:00:01,15.51584085,0.000152,53.2175,245.2693,34.4857,339.7562,-0.020525,-0.01118043,0.0,0 STARLINK-4293,1 52989U 22076D   22215.83334491 -.01118043  00000-0 -20525-1 0  9992,2 52989  53.2175 245.2693 0001520  34.4857 339.7562 15.51584085  4784,6790.236999999999,92.808,413.135,411.07,0.0
52989.0,STARLINK-4293,PAYLOAD,2022-08-03 22:00:01,15.51382202,0.0001664,53.2173,244.8698,36.0946,83.9188,-0.020657,-0.01117207,0.0,0 STARLINK-4293,1 52989U 22076D   22215.91668981 -.01117207  00000-0 -20657-1 0  9992,2 52989  53.2173 244.8698 0001664  36.0946  83.9188 15.51382202  1302,6790.8269999999975,92.82,413.822,411.562,0.0
52989.0,STARLINK-4293,PAYLOAD,2022-08-04 04:00:00,15.50661559,0.0001646,53.2175,243.6733,33.8816,42.8438,-0.014668,-0.00786977,0.0,0 STARLINK-4293,1 52989U 22076D   22216.16667824 -.00786977  00000-0 -14668-1 0  9995,2 52989  53.2175 243.6733 0001646  33.8816  42.8438 15.50661559  4839,6792.93,92.864,415.913,413.677,0.0
52989.0,STARLINK-4293,PAYLOAD,2022-08-04 12:00:00,15.49969564,0.0001565999999999,53.2175,242.0809,39.1544,99.0884,-0.0023658,-0.00132871,0.0,0 STARLINK-4293,1 52989U 22076D   22216.50001157 -.00132871  00000-0 -23658-2 0  9992,2 52989  53.2175 242.0809 0001566  39.1544  99.0884 15.49969564  4883,6794.9519999999975,92.905,417.881,415.753,0.0
52989.0,STARLINK-4293,PAYLOAD,2022-08-04 14:00:01,15.49887249,0.000156,53.2172,241.6822,41.7071,201.805,-6.4612e-05,-4.117e-05,0.0,0 STARLINK-4293,1 52989U 22076D   22216.58334491 -.00004117  00000-0 -64612-4 0  9998,2 52989  53.2172 241.6822 0001560  41.7071 201.8050 15.49887249  1309,6795.193,92.91,418.11800000000005,415.99800000000016,0.0
52989.0,STARLINK-4293,PAYLOAD,2022-08-04 20:00:01,15.49864347,0.0001595999999999,53.2185,240.4904,37.5199,161.4949,0.00014057,7.528e-05,0.0,0 STARLINK-4293,1 52989U 22076D   22216.83334491  .00007528  00000-0  14057-3 0  9990,2 52989  53.2185 240.4904 0001596  37.5199 161.4949 15.49864347  4949,6795.26,92.911,418.209,416.04,0.0
52989.0,STARLINK-4293,PAYLOAD,2022-08-04 22:00:00,15.49845652,0.000157,53.2183,240.0919,39.2653,264.9788,0.00088047,0.00049769,0.0,0 STARLINK-4293,1 52989U 22076D   22216.91667824  .00049769  00000-0  88047-3 0  9991,2 52989  53.2183 240.0919 0001570  39.2653 264.9788 15.49845652  1300,6795.314,92.912,418.246,416.112,0.0
52989.0,STARLINK-4293,PAYLOAD,2022-08-05 12:00:00,15.49884771,0.0001721999999999,53.2181,237.3044,35.461,285.3504,0.00145,0.00082718,0.0,0 STARLINK-4293,1 52989U 22076D   22217.50001157  .00082718  00000-0  14500-2 0  9991,2 52989  53.2181 237.3044 0001722  35.4610 285.3504 15.49884771  5049,6795.2,92.91,418.235,415.895,0.0
52989.0,STARLINK-4293,PAYLOAD,2022-08-05 14:00:01,15.50141642,0.0002021999999999,53.2177,236.9054,34.2508,31.7985,-0.0096625,-0.005188,0.0,0 STARLINK-4293,1 52989U 22076D   22217.58335648 -.00518800  00000-0 -96625-2 0  9990,2 52989  53.2177 236.9054 0002022  34.2508  31.7985 15.50141642  1303,6794.449000000001,92.895,417.68800000000016,414.94,0.0
52989.0,STARLINK-4293,PAYLOAD,2022-08-05 20:00:01,15.49978985,0.0001608,53.2178,235.7076,33.6843,348.186,-0.025199,-0.01297697,0.0,0 STARLINK-4293,1 52989U 22076D   22217.83335648 -.01297697  00000-0 -25199-1 0  9994,2 52989  53.2178 235.7076 0001608  33.6843 348.1860 15.49978985  5092,6794.924,92.904,417.882,415.697,0.0
52989.0,STARLINK-4293,PAYLOAD,2022-08-05 22:00:00,15.49655764,0.0001781999999999,53.2175,235.3087,35.9366,91.1169,-0.021911,-0.01114321,0.0,0 STARLINK-4293,1 52989U 22076D   22217.91667824 -.01114321  00000-0 -21911-1 0  9997,2 52989  53.2175 235.3087 0001782  35.9366  91.1169 15.49655764  1309,6795.869000000002,92.924,418.945,416.523,0.0
52989.0,STARLINK-4293,PAYLOAD,2022-08-06 04:00:03,15.49055337,0.0002051,53.2176,234.1154,25.6088,56.7736,-0.022404,-0.01115344,0.0,0 STARLINK-4293,1 52989U 22076D   22218.16670139 -.01115344  00000-0 -22404-1 0  9992,2 52989  53.2176 234.1154 0002051  25.6088  56.7736 15.49055337  5142,6797.625,92.96,420.884,418.096,0.0
52989.0,STARLINK-4293,PAYLOAD,2022-08-06 12:57:00,15.49227172,7e-05,53.2181,232.3449,34.9461,325.1595,-0.00258,-0.00140962,0.0,0 STARLINK-4293,1 52989U 22076D   22218.53958875 -.00140962  00000-0 -25800-2 0  9996,2 52989  53.2181 232.3449 0000700  34.9461 325.1595 15.49227172  4730,6797.123000000001,92.95,419.463,418.512,0.0
52989.0,STARLINK-4293,PAYLOAD,2022-08-06 20:00:01,15.47447328,0.0001679,53.2175,230.9369,41.4744,158.6648,-0.023601,-0.01126777,0.0,0 STARLINK-4293,1 52989U 22076D   22218.83334491 -.01126777  00000-0 -23601-1 0  9996,2 52989  53.2175 230.9369 0001679  41.4744 158.6648 15.47447328  5252,6802.334,93.056,425.341,423.056,0.0
52989.0,STARLINK-4293,PAYLOAD,2022-08-06 22:00:00,15.47246415,0.000149,53.2173,230.54,40.5238,264.08,-0.023775,-0.01127061,0.0,0 STARLINK-4293,1 52989U 22076D   22218.91667824 -.01127061  00000-0 -23775-1 0  9993,2 52989  53.2173 230.5400 0001490  40.5238 264.0800 15.47246415  1309,6802.922,93.069,425.801,423.774,0.0
52989.0,STARLINK-4293,PAYLOAD,2022-08-07 12:00:00,15.45841595,0.0001435,53.2173,227.7687,42.9274,271.2359,-0.024936,-0.01125865,0.0,0 STARLINK-4293,1 52989U 22076D   22219.50001157 -.01125865  00000-0 -24936-1 0  9990,2 52989  53.2173 227.7687 0001435  42.9274 271.2359 15.45841595  5355,6807.043000000002,93.153,429.885,427.932,0.0
52989.0,STARLINK-4293,PAYLOAD,2022-08-07 12:12:52,15.47531453,0.0001469,53.2185,227.7357,34.9216,325.189,-0.0048542,-0.00246271,0.0,0 STARLINK-4293,1 52989U 22076D   22219.50894465 -.00246271  00000-0 -48542-2 0  9996,2 52989  53.2185 227.7357 0001469  34.9216 325.1890 15.47531453  4883,6802.087,93.051,424.951,422.953,0.0
52989.0,STARLINK-4293,PAYLOAD,2022-08-07 13:46:12,15.47227841,0.0001363,53.2184,227.4297,28.4439,331.6644,-0.0055582,-0.00277845,0.0,0 STARLINK-4293,1 52989U 22076D   22219.57375859 -.00277845  00000-0 -55582-2 0  9997,2 52989  53.2184 227.4297 0001363  28.4439 331.6644 15.47227841  5366,6802.977,93.07,425.769,423.915,0.0
52989.0,STARLINK-4293,PAYLOAD,2022-08-07 22:00:00,15.44839134,0.000169,53.2173,225.789,37.9016,75.5694,-0.0259019999999999,-0.01129516,0.0,0 STARLINK-4293,1 52989U 22076D   22219.91667824 -.01129516  00000-0 -25902-1 0  9995,2 52989  53.2173 225.7890 0001690  37.9016  75.5694 15.44839134  1303,6809.988,93.214,433.004,430.702,0.0
52989.0,STARLINK-4293,PAYLOAD,2022-08-08 04:00:00,15.44237567,0.0001769,53.2175,224.6051,32.9971,31.3329,-0.026445,-0.01129677,0.0,0 STARLINK-4293,1 52989U 22076D   22220.16667824 -.01129677  00000-0 -26445-1 0  9995,2 52989  53.2175 224.6051 0001769  32.9971  31.3329 15.44237567  5451,6811.755999999999,93.25,434.826,432.416,0.0
52989.0,STARLINK-4293,PAYLOAD,2022-08-08 14:00:01,15.43234896,0.0001710999999999,53.2172,222.6329,41.2217,180.0662,-0.027399,-0.01130982,0.0,0 STARLINK-4293,1 52989U 22076D   22220.58335648 -.01130982  00000-0 -27399-1 0  9997,2 52989  53.2172 222.6329 0001711  41.2217 180.0662 15.43234896  1300,6814.706,93.31,437.737,435.405,0.0
52989.0,STARLINK-4293,PAYLOAD,2022-08-08 20:00:01,15.42629075,0.0001712,53.2174,221.4493,40.8452,129.8577,-0.027794,-0.0112456,0.0,0 STARLINK-4293,1 52989U 22076D   22220.83335648 -.01124560  00000-0 -27794-1 0  9999,2 52989  53.2174 221.4493 0001712  40.8452 129.8577 15.42629075  5562,6816.49,93.347,439.522,437.189,0.0
